{
    "links": {
        "self": "http://www.neowsapp.com/rest/v1/neo/3614396?api_key=iIulBulltgU6a56xZRHN4H3l9WmuAYTsLGpBGhQ2"
    },
    "id": "3614396",
    "neo_reference_id": "3614396",
    "name": "(2012 UT136)",
    "designation": "2012 UT136",
    "nasa_jpl_url": "http://ssd.jpl.nasa.gov/sbdb.cgi?sstr=3614396",
    "absolute_magnitude_h": 21.1,
    "estimated_diameter": {
        "kilometers": {
            "estimated_diameter_min": 0.160160338,
            "estimated_diameter_max": 0.358129403
        },
        "meters": {
            "estimated_diameter_min": 160.1603379786,
            "estimated_diameter_max": 358.1294030194
        },
        "miles": {
            "estimated_diameter_min": 0.0995189894,
            "estimated_diameter_max": 0.2225312253
        },
        "feet": {
            "estimated_diameter_min": 525.4604432536,
            "estimated_diameter_max": 1174.9652706022
        }
    },
    "is_potentially_hazardous_asteroid": false,
    "close_approach_data": [
        {
            "close_approach_date": "2012-12-27",
            "close_approach_date_full": "2012-Dec-27 08:58",
            "epoch_date_close_approach": 1356598680000,
            "relative_velocity": {
                "kilometers_per_second": "13.647340171",
                "kilometers_per_hour": "49130.4246156144",
                "miles_per_hour": "30527.7352285188"
            },
            "miss_distance": {
                "astronomical": "0.2910565124",
                "lunar": "113.2209833236",
                "kilometers": "43541434.304668588",
                "miles": "27055392.7016909944"
            },
            "orbiting_body": "Earth"
        }
    ],
    "orbital_data": {
        "orbit_id": "5",
        "orbit_determination_date": "2017-04-06 08:48:21",
        "first_observation_date": "2012-10-21",
        "last_observation_date": "2012-10-22",
        "data_arc_in_days": 1,
        "observations_used": 12,
        "orbit_uncertainty": "9",
        "minimum_orbit_intersection": ".119442",
        "jupiter_tisserand_invariant": "4.530",
        "epoch_osculation": "2456222.5",
        "eccentricity": ".5700866218245785",
        "semi_major_axis": "1.413387177470921",
        "inclination": "7.672068618215184",
        "ascending_node_longitude": "124.955709858987",
        "orbital_period": "613.7480811797559",
        "perihelion_distance": ".6076340561363478",
        "perihelion_argument": "22.14687850972675",
        "aphelion_distance": "2.219140298805494",
        "perihelion_time": "2456316.818987456022",
        "mean_anomaly": "304.676266166243",
        "mean_motion": ".5865598786199095",
        "equinox": "J2000",
        "orbit_class": {
            "orbit_class_type": "APO",
            "orbit_class_description": "Near-Earth asteroid orbits which cross the Earth’s orbit similar to that of 1862 Apollo",
            "orbit_class_range": "a (semi-major axis) > 1.0 AU; q (perihelion) < 1.017 AU"
        }
    },
    "is_sentry_object": false
}